start=new Date('2022-07-10T00:00:00.000Z').valueOf();
sats=[{"OBJECT_NAME":"STARLINK-2030","OBJECT_TYPE":"PAYLOAD","TIME_SYSTEM":"UTC","SITE":"AFETR","OBJECT_ID":"2021-012AD","ECCENTRICITY":"0.00012320","MEAN_ELEMENT_THEORY":"SGP4","MEAN_MOTION":"15.06397041","COUNTRY_CODE":"US","FILE":"3510681","MEAN_ANOMALY":"286.3246","TLE_LINE1":"1 47647U 21012AD  22190.63037783 -.00001578  00000-0 -87067-4 0  9990","MEAN_MOTION_DDOT":"0.0000000000000","RCS_SIZE":"LARGE","ELEMENT_SET_NO":"999","NORAD_CAT_ID":"47647","DECAY_DATE":null,"BSTAR":"-0.00008706700000","RA_OF_ASC_NODE":"322.9004","CLASSIFICATION_TYPE":"U","MEAN_MOTION_DOT":"-0.00001578","LAUNCH_DATE":"2021-02-16","SEMIMAJOR_AXIS":"6925.358","GP_ID":"207783231","ARG_OF_PERICENTER":"73.7879","EPHEMERIS_TYPE":"0","PERIOD":"95.592","INCLINATION":"53.0556","TLE_LINE2":"2 47647  53.0556 322.9004 0001232  73.7879 286.3246 15.06397041 78162","EPOCH":"2022-07-09T15:07:44.644512","REF_FRAME":"TEME","APOAPSIS":"548.076","REV_AT_EPOCH":"7816","CENTER_NAME":"EARTH","PERIAPSIS":"546.369"},{"ECCENTRICITY":"0.00013590","MEAN_ELEMENT_THEORY":"SGP4","OBJECT_TYPE":"PAYLOAD","TIME_SYSTEM":"UTC","OBJECT_NAME":"STARLINK-2031","OBJECT_ID":"2021-012AE","SITE":"AFETR","ELEMENT_SET_NO":"999","NORAD_CAT_ID":"47648","FILE":"3510681","MEAN_ANOMALY":"284.1783","MEAN_MOTION":"15.06375540","COUNTRY_CODE":"US","MEAN_MOTION_DDOT":"0.0000000000000","RCS_SIZE":"MEDIUM","TLE_LINE1":"1 47648U 21012AE  22190.68753735 -.00000902  00000-0 -41679-4 0  9997","MEAN_MOTION_DOT":"-0.00000902","CLASSIFICATION_TYPE":"U","LAUNCH_DATE":"2021-02-16","SEMIMAJOR_AXIS":"6925.424","BSTAR":"-0.00004167900000","DECAY_DATE":null,"RA_OF_ASC_NODE":"302.6421","REF_FRAME":"TEME","APOAPSIS":"548.230","PERIAPSIS":"546.347","REV_AT_EPOCH":"7845","CENTER_NAME":"EARTH","ARG_OF_PERICENTER":"75.9357","GP_ID":"207783481","INCLINATION":"53.0553","TLE_LINE2":"2 47648  53.0553 302.6421 0001359  75.9357 284.1783 15.06375540 78457","EPOCH":"2022-07-09T16:30:03.227040","EPHEMERIS_TYPE":"0","PERIOD":"95.594"},{"RA_OF_ASC_NODE":"302.6292","DECAY_DATE":null,"BSTAR":"-0.00035416000000","LAUNCH_DATE":"2021-02-16","SEMIMAJOR_AXIS":"6925.366","CLASSIFICATION_TYPE":"U","MEAN_MOTION_DOT":"-0.00005552","PERIOD":"95.592","EPHEMERIS_TYPE":"0","INCLINATION":"53.0552","TLE_LINE2":"2 47649  53.0552 302.6292 0001423  61.6498 298.4635 15.06394336 78451","EPOCH":"2022-07-09T16:35:18.649248","GP_ID":"207783733","ARG_OF_PERICENTER":"61.6498","REV_AT_EPOCH":"7845","CENTER_NAME":"EARTH","PERIAPSIS":"546.245","APOAPSIS":"548.216","REF_FRAME":"TEME","SITE":"AFETR","OBJECT_ID":"2021-012AF","OBJECT_NAME":"STARLINK-2032","OBJECT_TYPE":"PAYLOAD","TIME_SYSTEM":"UTC","MEAN_ELEMENT_THEORY":"SGP4","ECCENTRICITY":"0.00014230","TLE_LINE1":"1 47649U 21012AF  22190.69118807 -.00005552  00000-0 -35416-3 0  9991","MEAN_MOTION_DDOT":"0.0000000000000","RCS_SIZE":"LARGE","COUNTRY_CODE":"US","MEAN_MOTION":"15.06394336","FILE":"3510681","MEAN_ANOMALY":"298.4635","NORAD_CAT_ID":"47649","ELEMENT_SET_NO":"999"},{"COUNTRY_CODE":"US","MEAN_MOTION":"15.06394287","MEAN_ANOMALY":"289.0416","FILE":"3510681","TLE_LINE1":"1 47650U 21012AG  22190.67645576 -.00000686  00000-0 -27178-4 0  9999","RCS_SIZE":"LARGE","MEAN_MOTION_DDOT":"0.0000000000000","ELEMENT_SET_NO":"999","NORAD_CAT_ID":"47650","OBJECT_NAME":"STARLINK-2033","TIME_SYSTEM":"UTC","OBJECT_TYPE":"PAYLOAD","SITE":"AFETR","OBJECT_ID":"2021-012AG","ECCENTRICITY":"0.00012260","MEAN_ELEMENT_THEORY":"SGP4","GP_ID":"207783984","ARG_OF_PERICENTER":"71.0706","EPHEMERIS_TYPE":"0","PERIOD":"95.593","EPOCH":"2022-07-09T16:14:05.777664","INCLINATION":"53.0563","TLE_LINE2":"2 47650  53.0563 302.6938 0001226  71.0706 289.0416 15.06394287 78436","APOAPSIS":"548.080","REF_FRAME":"TEME","CENTER_NAME":"EARTH","REV_AT_EPOCH":"7843","PERIAPSIS":"546.382","DECAY_DATE":null,"BSTAR":"-0.00002717800000","RA_OF_ASC_NODE":"302.6938","CLASSIFICATION_TYPE":"U","MEAN_MOTION_DOT":"-0.00000686","SEMIMAJOR_AXIS":"6925.366","LAUNCH_DATE":"2021-02-16"},{"LAUNCH_DATE":"2021-02-16","SEMIMAJOR_AXIS":"6925.396","CLASSIFICATION_TYPE":"U","MEAN_MOTION_DOT":"-0.00002195","RA_OF_ASC_NODE":"322.5644","DECAY_DATE":null,"BSTAR":"-0.00012858000000","REV_AT_EPOCH":"7817","CENTER_NAME":"EARTH","PERIAPSIS":"546.247","REF_FRAME":"TEME","APOAPSIS":"548.275","EPHEMERIS_TYPE":"0","PERIOD":"95.593","TLE_LINE2":"2 47651  53.0572 322.5644 0001464  79.1229 280.9925 15.06384560 78174","INCLINATION":"53.0572","EPOCH":"2022-07-09T17:09:52.163712","GP_ID":"207782732","ARG_OF_PERICENTER":"79.1229","MEAN_ELEMENT_THEORY":"SGP4","ECCENTRICITY":"0.00014640","OBJECT_ID":"2021-012AH","SITE":"AFETR","OBJECT_NAME":"STARLINK-2035","OBJECT_TYPE":"PAYLOAD","TIME_SYSTEM":"UTC","NORAD_CAT_ID":"47651","ELEMENT_SET_NO":"999","TLE_LINE1":"1 47651U 21012AH  22190.71518708 -.00002195  00000-0 -12858-3 0  9996","MEAN_MOTION_DDOT":"0.0000000000000","RCS_SIZE":"LARGE","COUNTRY_CODE":"US","MEAN_MOTION":"15.06384560","FILE":"3510681","MEAN_ANOMALY":"280.9925"},{"NORAD_CAT_ID":"47652","ELEMENT_SET_NO":"999","MEAN_MOTION_DDOT":"0.0000000000000","RCS_SIZE":"LARGE","TLE_LINE1":"1 47652U 21012AJ  22190.67091413 -.00005605  00000-0 -35769-3 0  9996","FILE":"3510681","MEAN_ANOMALY":"285.3291","COUNTRY_CODE":"US","MEAN_MOTION":"15.06401755","MEAN_ELEMENT_THEORY":"SGP4","ECCENTRICITY":"0.00012910","OBJECT_ID":"2021-012AJ","SITE":"AFETR","OBJECT_TYPE":"PAYLOAD","TIME_SYSTEM":"UTC","OBJECT_NAME":"STARLINK-2036","PERIAPSIS":"546.314","REV_AT_EPOCH":"7816","CENTER_NAME":"EARTH","APOAPSIS":"548.102","REF_FRAME":"TEME","INCLINATION":"53.0542","TLE_LINE2":"2 47652  53.0542 322.7099 0001291  74.7841 285.3291 15.06401755 78167","EPOCH":"2022-07-09T16:06:06.980832","PERIOD":"95.592","EPHEMERIS_TYPE":"0","ARG_OF_PERICENTER":"74.7841","GP_ID":"207782982","SEMIMAJOR_AXIS":"6925.343","LAUNCH_DATE":"2021-02-16","MEAN_MOTION_DOT":"-0.00005605","CLASSIFICATION_TYPE":"U","RA_OF_ASC_NODE":"322.7099","BSTAR":"-0.00035769000000","DECAY_DATE":null},{"ELEMENT_SET_NO":"999","NORAD_CAT_ID":"47653","MEAN_ANOMALY":"301.4373","FILE":"3510681","COUNTRY_CODE":"US","MEAN_MOTION":"15.06382050","RCS_SIZE":"LARGE","MEAN_MOTION_DDOT":"0.0000000000000","TLE_LINE1":"1 47653U 21012AK  22190.73175205 -.00003463  00000-0 -21379-3 0  9998","ECCENTRICITY":"0.00015620","MEAN_ELEMENT_THEORY":"SGP4","TIME_SYSTEM":"UTC","OBJECT_TYPE":"PAYLOAD","OBJECT_NAME":"STARLINK-2037","SITE":"AFETR","OBJECT_ID":"2021-012AK","APOAPSIS":"548.350","REF_FRAME":"TEME","PERIAPSIS":"546.187","CENTER_NAME":"EARTH","REV_AT_EPOCH":"7844","ARG_OF_PERICENTER":"58.6768","GP_ID":"207784233","EPOCH":"2022-07-09T17:33:43.377120","TLE_LINE2":"2 47653  53.0563 302.4301 0001562  58.6768 301.4373 15.06382050 78440","INCLINATION":"53.0563","EPHEMERIS_TYPE":"0","PERIOD":"95.593","MEAN_MOTION_DOT":"-0.00003463","CLASSIFICATION_TYPE":"U","LAUNCH_DATE":"2021-02-16","SEMIMAJOR_AXIS":"6925.404","BSTAR":"-0.00021379000000","DECAY_DATE":null,"RA_OF_ASC_NODE":"302.4301"},{"GP_ID":"207784483","ARG_OF_PERICENTER":"71.8726","EPHEMERIS_TYPE":"0","PERIOD":"95.594","TLE_LINE2":"2 47654  53.0562 322.4010 0001502  71.8726 288.2426 15.06377998 78170","INCLINATION":"53.0562","EPOCH":"2022-07-09T17:46:59.219616","REF_FRAME":"TEME","APOAPSIS":"548.321","REV_AT_EPOCH":"7817","CENTER_NAME":"EARTH","PERIAPSIS":"546.241","DECAY_DATE":null,"BSTAR":"-0.00050855000000","RA_OF_ASC_NODE":"322.4010","CLASSIFICATION_TYPE":"U","MEAN_MOTION_DOT":"-0.00007844","SEMIMAJOR_AXIS":"6925.416","LAUNCH_DATE":"2021-02-16","COUNTRY_CODE":"US","MEAN_MOTION":"15.06377998","FILE":"3510681","MEAN_ANOMALY":"288.2426","TLE_LINE1":"1 47654U 21012AL  22190.74096319 -.00007844  00000-0 -50855-3 0  9996","MEAN_MOTION_DDOT":"0.0000000000000","RCS_SIZE":"LARGE","ELEMENT_SET_NO":"999","NORAD_CAT_ID":"47654","OBJECT_NAME":"STARLINK-2038","OBJECT_TYPE":"PAYLOAD","TIME_SYSTEM":"UTC","SITE":"AFETR","OBJECT_ID":"2021-012AL","ECCENTRICITY":"0.00015020","MEAN_ELEMENT_THEORY":"SGP4"},{"APOAPSIS":"548.223","REF_FRAME":"TEME","REV_AT_EPOCH":"7817","CENTER_NAME":"EARTH","PERIAPSIS":"546.355","GP_ID":"207783232","ARG_OF_PERICENTER":"78.5666","EPHEMERIS_TYPE":"0","PERIOD":"95.594","TLE_LINE2":"2 47655  53.0548 322.4377 0001348  78.5666 281.5474 15.06375396 78175","INCLINATION":"53.0548","EPOCH":"2022-07-09T17:36:22.471488","CLASSIFICATION_TYPE":"U","MEAN_MOTION_DOT":"-0.00009412","LAUNCH_DATE":"2021-02-16","SEMIMAJOR_AXIS":"6925.424","DECAY_DATE":null,"BSTAR":"-0.00061420000000","RA_OF_ASC_NODE":"322.4377","ELEMENT_SET_NO":"999","NORAD_CAT_ID":"47655","MEAN_MOTION":"15.06375396","COUNTRY_CODE":"US","FILE":"3510681","MEAN_ANOMALY":"281.5474","TLE_LINE1":"1 47655U 21012AM  22190.73359342 -.00009412  00000-0 -61420-3 0  9997","MEAN_MOTION_DDOT":"0.0000000000000","RCS_SIZE":"LARGE","ECCENTRICITY":"0.00013480","MEAN_ELEMENT_THEORY":"SGP4","OBJECT_NAME":"STARLINK-2039","OBJECT_TYPE":"PAYLOAD","TIME_SYSTEM":"UTC","SITE":"AFETR","OBJECT_ID":"2021-012AM"},{"MEAN_MOTION_DOT":"-0.00003636","CLASSIFICATION_TYPE":"U","LAUNCH_DATE":"2021-02-16","SEMIMAJOR_AXIS":"6925.391","BSTAR":"-0.00022540000000","DECAY_DATE":null,"RA_OF_ASC_NODE":"302.6621","REF_FRAME":"TEME","APOAPSIS":"548.312","PERIAPSIS":"546.200","REV_AT_EPOCH":"7844","CENTER_NAME":"EARTH","ARG_OF_PERICENTER":"74.3548","GP_ID":"207783482","TLE_LINE2":"2 47656  53.0553 302.6621 0001525  74.3548 285.7609 15.06386095 78448","INCLINATION":"53.0553","EPOCH":"2022-07-09T16:24:43.048512","PERIOD":"95.593","EPHEMERIS_TYPE":"0","ECCENTRICITY":"0.00015250","MEAN_ELEMENT_THEORY":"SGP4","OBJECT_TYPE":"PAYLOAD","TIME_SYSTEM":"UTC","OBJECT_NAME":"STARLINK-2040","OBJECT_ID":"2021-012AN","SITE":"AFETR","ELEMENT_SET_NO":"999","NORAD_CAT_ID":"47656","FILE":"3510681","MEAN_ANOMALY":"285.7609","COUNTRY_CODE":"US","MEAN_MOTION":"15.06386095","MEAN_MOTION_DDOT":"0.0000000000000","RCS_SIZE":"LARGE","TLE_LINE1":"1 47656U 21012AN  22190.68383158 -.00003636  00000-0 -22540-3 0  9996"}];
